{
  "norad_id": 63407,
  "name": "STARLINK-33694",
  "history": [
    {
      "epoch": "2026-03-28T18:59:55.715712Z",
      "apogee_km": 483.34830095062716,
      "perigee_km": 482.5503566105899,
      "latitude_deg": -6.099977632727968e-06,
      "longitude_deg": -112.19384458660637,
      "height_km": 482.35689669640635,
      "semi_major_axis_km": 6861.086328780608,
      "eccentricity": 5.815e-05,
      "inclination_deg": 43.0042,
      "raan_deg": 358.9953,
      "arg_perigee_deg": 337.4922,
      "mean_anomaly_deg": 22.5904,
      "mean_motion_rev_day": 15.27613319
    },
    {
      "epoch": "2026-03-29T01:16:32.783808Z",
      "apogee_km": 483.9229874479761,
      "perigee_km": 481.968951018338,
      "latitude_deg": -2.504246671831566e-05,
      "longitude_deg": 151.9181990351436,
      "height_km": 482.57402603390705,
      "semi_major_axis_km": 6861.082969233156,
      "eccentricity": 0.0001424,
      "inclination_deg": 43.0034,
      "raan_deg": 357.5196,
      "arg_perigee_deg": 278.7751,
      "mean_anomaly_deg": 81.2939,
      "mean_motion_rev_day": 15.27614441
    },
    {
      "epoch": "2026-03-30T00:48:53.455392Z",
      "apogee_km": 483.8203123804351,
      "perigee_km": 482.1765215572377,
      "latitude_deg": 6.357939176425019e-06,
      "longitude_deg": 152.32638596066147,
      "height_km": 482.89634097494087,
      "semi_major_axis_km": 6861.135416968836,
      "eccentricity": 0.00011979,
      "inclination_deg": 43.0034,
      "raan_deg": 351.9806,
      "arg_perigee_deg": 261.531,
      "mean_anomaly_deg": 98.5406,
      "mean_motion_rev_day": 15.27596925
    },
    {
      "epoch": "2026-03-31T09:46:11.266176Z",
      "apogee_km": 484.3858527702723,
      "perigee_km": 481.6386486102956,
      "latitude_deg": -1.3725302417698888e-05,
      "longitude_deg": 8.895143030085999,
      "height_km": 482.7543436983926,
      "semi_major_axis_km": 6861.149250690283,
      "eccentricity": 0.0002002,
      "inclination_deg": 42.9966,
      "raan_deg": 344.227,
      "arg_perigee_deg": 271.4479,
      "mean_anomaly_deg": 88.6143,
      "mean_motion_rev_day": 15.27592305
    },
    {
      "epoch": "2026-04-01T01:27:44.551584Z",
      "apogee_km": 483.9974764848057,
      "perigee_km": 481.9413401163665,
      "latitude_deg": -2.2734078847800938e-05,
      "longitude_deg": 129.16777379862663,
      "height_km": 482.6678462817459,
      "semi_major_axis_km": 6861.106408300586,
      "eccentricity": 0.00014984,
      "inclination_deg": 42.9969,
      "raan_deg": 340.5328,
      "arg_perigee_deg": 274.3516,
      "mean_anomaly_deg": 85.7164,
      "mean_motion_rev_day": 15.27606613
    }
  ]
}